NORAD_CAT_ID,OBJECT_NAME,OBJECT_TYPE,EPOCH,MEAN_MOTION,ECCENTRICITY,INCLINATION,RA_OF_ASC_NODE,ARG_OF_PERICENTER,MEAN_ANOMALY,BSTAR,MEAN_MOTION_DOT,MEAN_MOTION_DDOT,TLE_LINE0,TLE_LINE1,TLE_LINE2,SEMIMAJOR_AXIS,PERIOD,APOGEE,PERIGEE,DECAYED
52847.0,STARLINK-4206,PAYLOAD,2022-07-15 06:00:00,15.73209142,0.0003021,53.215,267.663,16.4564,28.7925,0.00026849,0.00037248,0.0,0 STARLINK-4206,1 52847U 22062T   22196.25001157  .00037248  00000-0  26849-3 0  9995,2 52847  53.2150 267.6630 0003021  16.4564  28.7925 15.73209142  4861,6727.869000000002,91.533,351.767,347.702,0.0
52847.0,STARLINK-4206,PAYLOAD,2022-07-15 14:00:01,15.7324571,0.0003308,53.2149,266.0151,14.1192,120.0944,5.6242e-06,1.67e-06,0.0,0 STARLINK-4206,1 52847U 22062T   22196.58334491  .00000167  00000-0  56242-5 0  9993,2 52847  53.2149 266.0151 0003308  14.1192 120.0944 15.73245710  1304,6727.765,91.531,351.855,347.404,0.0
52847.0,STARLINK-4206,PAYLOAD,2022-07-15 22:00:00,15.73391071,0.0002972,53.2158,264.3636,13.294,209.8815,-0.0032633,-0.00439288,0.0,0 STARLINK-4206,1 52847U 22062T   22196.91667824 -.00439288  00000-0 -32633-2 0  9996,2 52847  53.2158 264.3636 0002972  13.2940 209.8815 15.73391071  4960,6727.35,91.522,351.215,347.216,0.0
52847.0,STARLINK-4206,PAYLOAD,2022-07-16 06:00:00,15.73109624,0.0002925,53.2167,262.7145,9.29,302.8705,-0.0052188,-0.00674823,0.0,0 STARLINK-4206,1 52847U 22062T   22197.25001157 -.00674823  00000-0 -52188-2 0  9998,2 52847  53.2167 262.7145 0002925   9.2900 302.8705 15.73109624  5027,6728.153,91.538,351.986,348.05,0.0
52847.0,STARLINK-4206,PAYLOAD,2022-07-16 14:00:01,15.72639837,0.0002992,53.2178,261.0712,8.5385,32.1644,-0.0090303,-0.01107915,0.0,0 STARLINK-4206,1 52847U 22062T   22197.58334491 -.01107915  00000-0 -90303-2 0  9999,2 52847  53.2178 261.0712 0002992   8.5385  32.1644 15.72639837  5077,6729.493,91.566,353.371,349.344,0.0
52847.0,STARLINK-4206,PAYLOAD,2022-07-16 22:00:00,15.71836925,0.0003283,53.2177,259.4265,7.6037,120.862,-0.0093395,-0.01107313,0.0,0 STARLINK-4206,1 52847U 22062T   22197.91667824 -.01107313  00000-0 -93395-2 0  9991,2 52847  53.2177 259.4265 0003283   7.6037 120.8620 15.71836925  1305,6731.784000000002,91.613,355.8590000000001,351.439,0.0
52847.0,STARLINK-4206,PAYLOAD,2022-07-17 06:00:00,15.71034808,0.0003142,53.2178,257.7857,9.5979,205.664,-0.0096706,-0.01107927,0.0,0 STARLINK-4206,1 52847U 22062T   22198.25001157 -.01107927  00000-0 -96706-2 0  9990,2 52847  53.2178 257.7857 0003142   9.5979 205.6640 15.71034808  5177,6734.075,91.659,358.056,353.824,0.0
52847.0,STARLINK-4206,PAYLOAD,2022-07-17 14:00:01,15.70231971,0.0003241,53.2175,256.1486,6.4966,294.5963,-0.010005,-0.01108045,0.0,0 STARLINK-4206,1 52847U 22062T   22198.58334491 -.01108045  00000-0 -10005-1 0  9995,2 52847  53.2175 256.1486 0003241   6.4966 294.5963 15.70231971  1302,6736.37,91.706,360.419,356.052,0.0
52847.0,STARLINK-4206,PAYLOAD,2022-07-17 22:00:00,15.69428419,0.0003242,53.2175,254.5098,4.4303,21.5314,-0.010336,-0.01106889,0.0,0 STARLINK-4206,1 52847U 22062T   22198.91667824 -.01106889  00000-0 -10336-1 0  9992,2 52847  53.2175 254.5098 0003242   4.4303  21.5314 15.69428419  5289,6738.67,91.753,362.719,358.35,0.0
52847.0,STARLINK-4206,PAYLOAD,2022-07-18 14:00:01,15.67820803,0.0001771999999999,53.2176,251.2436,320.8919,231.9095,-0.011019,-0.01103498,0.0,0 STARLINK-4206,1 52847U 22062T   22199.58334491 -.01103498  00000-0 -11019-1 0  9999,2 52847  53.2176 251.2436 0001772 320.8919 231.9095 15.67820803  1307,6743.275,91.847,366.335,363.945,0.0
52847.0,STARLINK-4206,PAYLOAD,2022-07-18 22:00:00,15.67018173,0.000158,53.2177,249.6105,19.2258,255.5493,-0.011383,-0.01120804,0.0,0 STARLINK-4206,1 52847U 22062T   22199.91667824 -.01120804  00000-0 -11383-1 0  9999,2 52847  53.2177 249.6105 0001580  19.2258 255.5493 15.67018173  5446,6745.578,91.894,368.509,366.377,0.0
52847.0,STARLINK-4206,PAYLOAD,2022-07-19 14:00:01,15.65411274,0.000111,53.2174,246.356,67.0869,8.7383,-0.012113,-0.01117541,0.0,0 STARLINK-4206,1 52847U 22062T   22200.58334491 -.01117541  00000-0 -12113-1 0  9992,2 52847  53.2174 246.3560 0001110  67.0869   8.7383 15.65411274  5544,6750.193,91.989,372.807,371.309,0.0
52847.0,STARLINK-4206,PAYLOAD,2022-07-19 22:00:00,15.64609513,0.0001202,53.2175,244.7289,71.4101,83.4942,-0.01253,-0.01119243,0.0,0 STARLINK-4206,1 52847U 22062T   22200.91667824 -.01119243  00000-0 -12530-1 0  9992,2 52847  53.2175 244.7289 0001202  71.4101  83.4942 15.64609513  1300,6752.499,92.036,375.176,373.552,0.0
52847.0,STARLINK-4206,PAYLOAD,2022-07-20 04:00:00,15.64005424,0.0001306,53.2176,243.5106,58.2392,65.342,-0.012803,-0.01116675,0.0,0 STARLINK-4206,1 52847U 22062T   22201.16667824 -.01116675  00000-0 -12803-1 0  9999,2 52847  53.2176 243.5106 0001306  58.2392  65.3420 15.64005424  5637,6754.238,92.071,376.985,375.221,0.0
52847.0,STARLINK-4206,PAYLOAD,2022-07-20 14:00:01,15.63003306,0.0001034,53.2174,241.4862,94.252,215.9131,-0.013332,-0.01117343,0.0,0 STARLINK-4206,1 52847U 22062T   22201.58334491 -.01117343  00000-0 -13332-1 0  9997,2 52847  53.2174 241.4862 0001034  94.2520 215.9131 15.63003306  1300,6757.124,92.13,379.68800000000016,378.291,0.0
52847.0,STARLINK-4206,PAYLOAD,2022-07-20 22:00:01,15.62200747,0.0001002,53.2175,239.8647,72.3464,314.0692,-0.013781,-0.01118891,0.0,0 STARLINK-4206,1 52847U 22062T   22201.91668981 -.01118891  00000-0 -13781-1 0  9995,2 52847  53.2175 239.8647 0001002  72.3464 314.0692 15.62200747  1302,6759.438,92.178,381.981,380.626,0.0
52847.0,STARLINK-4206,PAYLOAD,2022-07-21 14:00:01,15.60593528,0.0001204,53.2175,236.6338,85.8684,90.0196,-0.014615,-0.01115025,0.0,0 STARLINK-4206,1 52847U 22062T   22202.58335648 -.01115025  00000-0 -14615-1 0  9993,2 52847  53.2175 236.6338 0001204  85.8684  90.0196 15.60593528  5855,6764.079000000002,92.273,386.758,385.129,0.0
52847.0,STARLINK-4206,PAYLOAD,2022-07-21 22:00:00,15.59791546,0.0001161999999999,53.2176,235.0181,79.6608,169.4525,-0.015099,-0.01116663,0.0,0 STARLINK-4206,1 52847U 22062T   22202.91667824 -.01116663  00000-0 -15099-1 0  9990,2 52847  53.2176 235.0181 0001162  79.6608 169.4525 15.59791546  1306,6766.397,92.32,389.048,387.476,0.0
52847.0,STARLINK-4206,PAYLOAD,2022-07-22 06:00:00,15.58990512,0.0001071,53.2177,233.4076,80.3399,241.0965,-0.015611,-0.01119303,0.0,0 STARLINK-4206,1 52847U 22062T   22203.25001157 -.01119303  00000-0 -15611-1 0  9993,2 52847  53.2177 233.4076 0001071  80.3399 241.0965 15.58990512  5961,6768.714,92.367,391.304,389.855,0.0
52847.0,STARLINK-4206,PAYLOAD,2022-07-22 22:00:00,15.57382614,0.0001094,53.2174,230.1892,89.0579,14.135,-0.0165389999999999,-0.01115951,0.0,0 STARLINK-4206,1 52847U 22062T   22203.91667824 -.01115951  00000-0 -16539-1 0  9990,2 52847  53.2174 230.1892 0001094  89.0579  14.1350 15.57382614  6065,6773.371999999999,92.463,395.979,394.496,0.0
52847.0,STARLINK-4206,PAYLOAD,2022-07-23 14:00:01,15.55778501,0.0001198,53.2172,226.9814,78.2334,162.9177,-0.017585,-0.01117168,0.0,0 STARLINK-4206,1 52847U 22062T   22204.58335648 -.01117168  00000-0 -17585-1 0  9994,2 52847  53.2172 226.9814 0001198  78.2334 162.9177 15.55778501  1307,6778.028,92.558,400.705,399.081,0.0
52847.0,STARLINK-4206,PAYLOAD,2022-07-23 16:00:00,15.555787300000002,0.0001029,53.2174,226.5803,76.343,271.7089,-0.017753,-0.01119212,0.0,0 STARLINK-4206,1 52847U 22062T   22204.66667824 -.01119212  00000-0 -17753-1 0  9996,2 52847  53.2174 226.5803 0001029  76.3430 271.7089 15.55578730  6186,6778.608,92.57,401.17,399.775,0.0
52847.0,STARLINK-4206,PAYLOAD,2022-07-23 22:00:00,15.54973034,0.0001069,53.2175,225.3775,80.0611,228.528,-0.018057,-0.01113658,0.0,0 STARLINK-4206,1 52847U 22062T   22204.91667824 -.01113658  00000-0 -18057-1 0  9990,2 52847  53.2175 225.3775 0001069  80.0611 228.5280 15.54973034  1306,6780.368,92.606,402.958,401.508,0.0
52847.0,STARLINK-4206,PAYLOAD,2022-07-24 14:00:01,15.53369543,0.0001132,53.2172,222.1812,69.7629,10.9307,-0.019197,-0.01115898,0.0,0 STARLINK-4206,1 52847U 22062T   22205.58334491 -.01115898  00000-0 -19197-1 0  9999,2 52847  53.2172 222.1812 0001132  69.7629  10.9307 15.53369543  1300,6785.033,92.702,407.666,406.13,0.0
52847.0,STARLINK-4206,PAYLOAD,2022-07-24 22:00:00,15.52566032,0.0001257,53.2175,220.5834,69.5223,75.779,-0.019768,-0.01115939,0.0,0 STARLINK-4206,1 52847U 22062T   22205.91667824 -.01115939  00000-0 -19768-1 0  9995,2 52847  53.2175 220.5834 0001257  69.5223  75.7790 15.52566032  1301,6787.374,92.75,410.092,408.386,0.0
52847.0,STARLINK-4206,PAYLOAD,2022-07-25 06:00:00,15.51760965,0.000151,53.2176,218.9907,51.0908,157.8513,-0.020266,-0.01111675,0.0,0 STARLINK-4206,1 52847U 22062T   22206.25001157 -.01111675  00000-0 -20266-1 0  9992,2 52847  53.2176 218.9907 0001510  51.0908 157.8513 15.51760965  6436,6789.721,92.798,412.612,410.561,0.0
52847.0,STARLINK-4206,PAYLOAD,2022-07-25 14:00:01,15.50889604,0.0001133,53.2171,217.3974,89.2228,182.4096,-0.017591,-0.00949349,0.0,0 STARLINK-4206,1 52847U 22062T   22206.58334491 -.00949349  00000-0 -17591-1 0  9991,2 52847  53.2171 217.3974 0001133  89.2228 182.4096 15.50889604  1309,6792.264,92.85,414.899,413.36,0.0
52847.0,STARLINK-4206,PAYLOAD,2022-07-25 22:00:00,15.50098388,0.0001075999999999,53.2173,215.8028,86.3441,247.0024,-0.0056073,-0.00308792,0.0,0 STARLINK-4206,1 52847U 22062T   22206.91667824 -.00308792  00000-0 -56073-2 0  9997,2 52847  53.2173 215.8028 0001076  86.3441 247.0024 15.50098388  6535,6794.576,92.897,417.172,415.709,0.0
52847.0,STARLINK-4206,PAYLOAD,2022-07-26 06:00:00,15.50174838,0.0001236,53.2168,214.2081,72.0271,322.1939,-0.0076351,-0.00415813,0.0,0 STARLINK-4206,1 52847U 22062T   22207.25001157 -.00415813  00000-0 -76351-2 0  9990,2 52847  53.2168 214.2081 0001236  72.0271 322.1939 15.50174838  6582,6794.352,92.893,417.057,415.377,0.0
